H1 CPF 01  gfz 2022 04 12 12  6022 tandemx   
H2 1003001  6202 36605    2022 04 12 00 59 42 2022 04 17 00 00 42   120 1 1  0 0 0
H9
10 0 59684  25902.000000  0    6102833.408  -2245313.408  -2284601.559
10 0 59684  26022.000000  0    5706861.988  -2290051.137  -3115049.481
10 0 59684  26142.000000  0    5211098.451  -2287087.088  -3890841.740
10 0 59684  26262.000000  0    4625125.209  -2234852.533  -4598438.241
10 0 59684  26382.000000  0    3960095.486  -2132817.704  -5225523.957
10 0 59684  26502.000000  0    3228510.454  -1981521.833  -5761216.379
10 0 59684  26622.000000  0    2443977.302  -1782580.733  -6196243.479
10 0 59684  26742.000000  0    1620953.852  -1538672.434  -6523093.926
10 0 59684  26862.000000  0     774480.791  -1253500.944  -6736136.402
10 0 59684  26982.000000  0     -80090.515   -931739.933  -6831705.994
10 0 59684  27102.000000  0    -927371.022   -578956.838  -6808159.895
10 0 59684  27222.000000  0   -1752204.377   -201518.712  -6665902.725
10 0 59684  27342.000000  0   -2539932.033    193520.083  -6407379.641
10 0 59684  27462.000000  0   -3276647.431    598545.489  -6037038.318
10 0 59684  27582.000000  0   -3949437.807   1005525.904  -5561261.675
10 0 59684  27702.000000  0   -4546611.523   1406166.393  -4988268.803
10 0 59684  27822.000000  0   -5057905.602   1792073.691  -4327985.543
10 0 59684  27942.000000  0   -5474670.095   2154929.438  -3591882.853
10 0 59684  28062.000000  0   -5790023.667   2486665.928  -2792786.216
10 0 59684  28182.000000  0   -5998978.707   2779642.173  -1944658.287
10 0 59684  28302.000000  0   -6098531.386   3026816.107  -1062356.871
10 0 59684  28422.000000  0   -6087713.457   3221908.754   -161372.522
10 0 59684  28542.000000  0   -5967603.913   3359555.261    742449.516
10 0 59684  28662.000000  0   -5741298.043   3435438.393   1633196.892
10 0 59684  28782.000000  0   -5413835.201   3446401.791   2495179.290
10 0 59684  28902.000000  0   -4992087.680   3390539.322   3313213.140
10 0 59684  29022.000000  0   -4484613.899   3267258.420   4072896.488
10 0 59684  29142.000000  0   -3901478.578   3077315.403   4760867.328
10 0 59684  29262.000000  0   -3254046.600   2822822.853   5365039.333
10 0 59684  29382.000000  0   -2554754.755   2507230.111   5874813.717
10 0 59684  29502.000000  0   -1816865.794   2135275.782   6281261.472
10 0 59684  29622.000000  0   -1054211.299   1712913.980   6577274.071
10 0 59684  29742.000000  0    -280929.697   1247216.544   6757680.072
10 0 59684  29862.000000  0     488795.484    746252.773   6819330.030
10 0 59684  29982.000000  0    1240995.255    218949.174   6761147.828
10 0 59684  30102.000000  0    1962167.471   -325068.913   6584148.273
10 0 59684  30222.000000  0    2639518.455   -875652.482   6291421.325
10 0 59684  30342.000000  0    3261190.668  -1422317.339   5888082.209
10 0 59684  30462.000000  0    3816473.613  -1954443.363   5381187.665
10 0 59684  30582.000000  0    4295992.451  -2461481.035   4779617.473
10 0 59684  30702.000000  0    4691871.644  -2933161.459   4093925.098
10 0 59684  30822.000000  0    4997871.592  -3359707.050   3336157.182
10 0 59684  30942.000000  0    5209494.238  -3732036.546   2519642.640
10 0 59684  31062.000000  0    5324053.200  -4041959.378   1658755.714
10 0 59684  31182.000000  0    5340707.405  -4282355.884    768658.788
10 0 59684  31302.000000  0    5260458.119  -4447337.682   -134971.394
10 0 59684  31422.000000  0    5086108.628  -4532384.858  -1036228.176
10 0 59684  31542.000000  0    4822187.001  -4534455.137  -1919264.199
10 0 59684  31662.000000  0    4474834.265  -4452062.843  -2768578.066
10 0 59684  31782.000000  0    4051661.365  -4285325.907  -3569291.885
10 0 59684  31902.000000  0    3561579.100  -4035980.158  -4307414.422
10 0 59684  32022.000000  0    3014605.623  -3707360.916  -4970084.033
10 0 59684  32142.000000  0    2421656.312  -3304353.536  -5545787.196
10 0 59684  32262.000000  0    1794322.661  -2833314.858  -6024548.582
10 0 59684  32382.000000  0    1144645.306  -2301968.943  -6398093.535
10 0 59684  32502.000000  0     484883.111  -1719276.755  -6659981.546
10 0 59684  32622.000000  0    -172715.898  -1095282.578  -6805706.350
10 0 59684  32742.000000  0    -816137.025   -440941.802  -6832763.957
10 0 59684  32862.000000  0   -1433812.653    232067.580  -6740690.508
10 0 59684  32982.000000  0   -2014825.515    911548.061  -6531068.784
10 0 59684  33102.000000  0   -2549096.989   1584997.922  -6207503.915
10 0 59684  33222.000000  0   -3027558.817   2239835.429  -5775568.363
10 0 59684  33342.000000  0   -3442307.019   2863629.880  -5242716.941
10 0 59684  33462.000000  0   -3786735.789   3444336.499  -4618170.263
10 0 59684  33582.000000  0   -4055648.056   3970530.053  -3912765.589
10 0 59684  33702.000000  0   -4245338.396   4431632.338  -3138777.644
10 0 59684  33822.000000  0   -4353647.887   4818129.486  -2309712.829
10 0 59684  33942.000000  0   -4379990.229   5121773.270  -1440077.540
10 0 59684  34062.000000  0   -4325347.315   5335762.550   -545124.905
10 0 59684  34182.000000  0   -4192232.303   5454899.142    359417.957
10 0 59684  34302.000000  0   -3984620.857   5475711.578   1257632.740
10 0 59684  34422.000000  0   -3707853.230   5396546.682   2133699.747
10 0 59684  34542.000000  0   -3368507.623   5217622.191   2972187.101
10 0 59684  34662.000000  0   -2974247.753   4941040.918   3758330.200
10 0 59684  34782.000000  0   -2533651.521   4570767.751   4478296.407
10 0 59684  34902.000000  0   -2056023.896   4112569.370   5119431.406
10 0 59684  35022.000000  0   -1551199.100   3573918.010   5670481.780
10 0 59684  35142.000000  0   -1029336.024   2963862.018   6121789.578
10 0 59684  35262.000000  0    -500712.652   2292866.586   6465455.890
10 0 59684  35382.000000  0      24475.815   1572629.494   6695472.257
10 0 59684  35502.000000  0     536313.088    815874.225   6807820.846
10 0 59684  35622.000000  0    1025348.443     36123.833   6800539.328
10 0 59684  35742.000000  0    1482770.115   -752539.668   6673753.391
10 0 59684  35862.000000  0    1900563.675  -1535729.359   6429675.368
10 0 59684  35982.000000  0    2271652.744  -2299015.087   6072568.357
10 0 59684  36102.000000  0    2590020.384  -3028190.338   5608677.085
10 0 59684  36222.000000  0    2850808.764  -3709539.001   5046123.958
10 0 59684  36342.000000  0    3050394.717  -4330096.939   4394772.480
10 0 59684  36462.000000  0    3186441.328  -4877904.799   3666059.362
10 0 59684  36582.000000  0    3257922.834  -5342245.289   2872795.526
10 0 59684  36702.000000  0    3265122.773  -5713860.264   2028940.715
10 0 59684  36822.000000  0    3209603.987  -5985141.801   1149354.264
10 0 59684  36942.000000  0    3094152.411  -6150291.441    249527.994
10 0 59684  37062.000000  0    2922696.472  -6205445.770   -654693.121
10 0 59684  37182.000000  0    2700201.976  -6148764.181  -1547400.331
10 0 59684  37302.000000  0    2432545.310  -5980473.030  -2412909.432
10 0 59684  37422.000000  0    2126370.408  -5702870.211  -3236043.030
10 0 59684  37542.000000  0    1788930.221  -5320287.504  -4002402.159
10 0 59684  37662.000000  0    1427919.430  -4839011.009  -4698617.649
10 0 59684  37782.000000  0    1051303.800  -4267165.881  -5312578.521
10 0 59684  37902.000000  0     667148.673  -3614568.846  -5833635.275
10 0 59684  38022.000000  0     283450.220  -2892550.775  -6252774.751
10 0 59684  38142.000000  0     -92026.837  -2113754.193  -6562764.410
10 0 59684  38262.000000  0    -451901.916  -1291909.780  -6758265.885
10 0 59684  38382.000000  0    -789318.837   -441595.690  -6835917.741
10 0 59684  38502.000000  0   -1098072.118    422017.268  -6794386.581
10 0 59684  38622.000000  0   -1372718.177   1283429.406  -6634386.424
10 0 59684  38742.000000  0   -1608668.995   2127083.199  -6358667.659
10 0 59684  38862.000000  0   -1802267.346   2937637.031  -5971975.560
10 0 59684  38982.000000  0   -1950843.676   3700240.596  -5480978.326
10 0 59684  39102.000000  0   -2052752.341   4400805.825  -4894163.011
10 0 59684  39222.000000  0   -2107387.726   5026270.434  -4221700.605
10 0 59684  39342.000000  0   -2115178.783   5564847.650  -3475279.093
10 0 59684  39462.000000  0   -2077561.391   6006256.029  -2667908.215
10 0 59684  39582.000000  0   -1996929.276   6341926.158  -1813698.740
10 0 59684  39702.000000  0   -1876564.923   6565178.350   -927616.861
10 0 59684  39822.000000  0   -1720550.981   6671364.921    -25220.500
10 0 59684  39942.000000  0   -1533664.221   6657976.675    877618.394
10 0 59684  40062.000000  0   -1321254.422   6524706.227   1765004.054
10 0 59684  40182.000000  0   -1089110.501   6273462.500   2621307.349
10 0 59684  40302.000000  0    -843318.549   5908341.373   3431448.271
10 0 59684  40422.000000  0    -590115.676   5435554.323   4181166.968
10 0 59684  40542.000000  0    -335743.438   4863316.264   4857280.204
10 0 59684  40662.000000  0     -86302.263   4201689.962   5447915.266
10 0 59684  40782.000000  0     152387.399   3462400.141   5942713.589
10 0 59684  40902.000000  0     374913.790   2658617.759   6333009.788
10 0 59684  41022.000000  0     576390.996   1804718.118   6611977.163
10 0 59684  41142.000000  0     752562.043    916019.511   6774741.405
10 0 59684  41262.000000  0     899885.848      8506.173   6818459.838
10 0 59684  41382.000000  0    1015606.863   -901458.044   6742368.191
10 0 59684  41502.000000  0    1097806.232  -1797424.593   6547794.183
10 0 59684  41622.000000  0    1145433.716  -2663157.279   6238136.130
10 0 59684  41742.000000  0    1158319.861  -3482928.058   5818807.508
10 0 59684  41862.000000  0    1137167.411  -4241805.238   5297145.928
10 0 59684  41982.000000  0    1083524.295  -4925928.045   4682290.160
10 0 59684  42102.000000  0     999737.480  -5522766.174   3985027.011
10 0 59684  42222.000000  0     888888.272  -6021359.502   3217606.168
10 0 59684  42342.000000  0     754710.553  -6412529.396   2393525.422
99
